{"fetched_at":"2026-07-06T08:46:35.713Z","source":"https://celestrak.org/NORAD/elements/gp.php?GROUP=kuiper&FORMAT=JSON","constellation":"kuiper","records":[{"OBJECT_NAME":"KUIPER-00285","OBJECT_ID":"2026-072S","EPOCH":"2026-07-05T14:00:03.000384","CLASSIFICATION_TYPE":"U","MEAN_MOTION":14.88396349,"ECCENTRICITY":0.00066989,"INCLINATION":51.9096,"RA_OF_ASC_NODE":92.0678,"ARG_OF_PERICENTER":67.2182,"MEAN_ANOMALY":196.1222,"EPHEMERIS_TYPE":0,"NORAD_CAT_ID":68589,"ELEMENT_SET_NO":999,"REV_AT_EPOCH":409,"BSTAR":-0.042976577,"MEAN_MOTION_DOT":-0.00381193,"MEAN_MOTION_DDOT":0},{"OBJECT_NAME":"KUIPER-00286","OBJECT_ID":"2026-072T","EPOCH":"2026-07-05T14:00:03.000384","CLASSIFICATION_TYPE":"U","MEAN_MOTION":15.04785355,"ECCENTRICITY":0.00046338,"INCLINATION":51.8992,"RA_OF_ASC_NODE":89.738,"ARG_OF_PERICENTER":47.0555,"MEAN_ANOMALY":62.9289,"EPHEMERIS_TYPE":0,"NORAD_CAT_ID":68590,"ELEMENT_SET_NO":999,"REV_AT_EPOCH":511,"BSTAR":-0.087134105,"MEAN_MOTION_DOT":-0.0114464,"MEAN_MOTION_DDOT":0},{"OBJECT_NAME":"KUIPER-00289","OBJECT_ID":"2026-072U","EPOCH":"2026-07-05T00:00:02.998944","CLASSIFICATION_TYPE":"U","MEAN_MOTION":14.79931005,"ECCENTRICITY":0.0000722,"INCLINATION":51.898,"RA_OF_ASC_NODE":99.3884,"ARG_OF_PERICENTER":121.2272,"MEAN_ANOMALY":37.9744,"EPHEMERIS_TYPE":0,"NORAD_CAT_ID":68591,"ELEMENT_SET_NO":999,"REV_AT_EPOCH":516,"BSTAR":-0.0020161,"MEAN_MOTION_DOT":-0.00015554,"MEAN_MOTION_DDOT":0},{"OBJECT_NAME":"KUIPER-00290","OBJECT_ID":"2026-072V","EPOCH":"2026-07-05T14:00:03.000384","CLASSIFICATION_TYPE":"U","MEAN_MOTION":14.84851849,"ECCENTRICITY":0.00102097,"INCLINATION":51.8991,"RA_OF_ASC_NODE":95.3004,"ARG_OF_PERICENTER":86.9294,"MEAN_ANOMALY":170.1034,"EPHEMERIS_TYPE":0,"NORAD_CAT_ID":68592,"ELEMENT_SET_NO":999,"REV_AT_EPOCH":342,"BSTAR":-0.0023200318,"MEAN_MOTION_DOT":-0.00020103,"MEAN_MOTION_DDOT":0},{"OBJECT_NAME":"KUIPER-00293","OBJECT_ID":"2026-072W","EPOCH":"2026-07-05T05:30:31.074912","CLASSIFICATION_TYPE":"U","MEAN_MOTION":14.79933247,"ECCENTRICITY":0.0003029,"INCLINATION":51.8972,"RA_OF_ASC_NODE":108.3579,"ARG_OF_PERICENTER":102.5239,"MEAN_ANOMALY":257.6062,"EPHEMERIS_TYPE":0,"NORAD_CAT_ID":68593,"ELEMENT_SET_NO":999,"REV_AT_EPOCH":1389,"BSTAR":0.00030179,"MEAN_MOTION_DOT":0.0000208,"MEAN_MOTION_DDOT":0},{"OBJECT_NAME":"KUIPER-00294","OBJECT_ID":"2026-072X","EPOCH":"2026-07-05T14:00:03.000384","CLASSIFICATION_TYPE":"U","MEAN_MOTION":14.83243703,"ECCENTRICITY":0.00065387,"INCLINATION":51.898,"RA_OF_ASC_NODE":94.3067,"ARG_OF_PERICENTER":78.3867,"MEAN_ANOMALY":296.2108,"EPHEMERIS_TYPE":0,"NORAD_CAT_ID":68594,"ELEMENT_SET_NO":999,"REV_AT_EPOCH":499,"BSTAR":0.002547364,"MEAN_MOTION_DOT":0.00020867,"MEAN_MOTION_DDOT":0},{"OBJECT_NAME":"KUIPER-00296","OBJECT_ID":"2026-072Y","EPOCH":"2026-07-05T03:29:21.043680","CLASSIFICATION_TYPE":"U","MEAN_MOTION":15.38767029,"ECCENTRICITY":0.0009276,"INCLINATION":51.8701,"RA_OF_ASC_NODE":90.0113,"ARG_OF_PERICENTER":85.498,"MEAN_ANOMALY":274.7067,"EPHEMERIS_TYPE":0,"NORAD_CAT_ID":68595,"ELEMENT_SET_NO":999,"REV_AT_EPOCH":1414,"BSTAR":0.0013978,"MEAN_MOTION_DOT":0.00054484,"MEAN_MOTION_DDOT":0},{"OBJECT_NAME":"KUIPER-00297","OBJECT_ID":"2026-072Z","EPOCH":"2026-07-05T05:12:44.000352","CLASSIFICATION_TYPE":"U","MEAN_MOTION":14.76352356,"ECCENTRICITY":0.0001165,"INCLINATION":51.899,"RA_OF_ASC_NODE":107.9241,"ARG_OF_PERICENTER":116.6526,"MEAN_ANOMALY":243.4554,"EPHEMERIS_TYPE":0,"NORAD_CAT_ID":68596,"ELEMENT_SET_NO":999,"REV_AT_EPOCH":1390,"BSTAR":0.00058195,"MEAN_MOTION_DOT":0.00003865,"MEAN_MOTION_DDOT":0},{"OBJECT_NAME":"KUIPER-00300","OBJECT_ID":"2026-072AA","EPOCH":"2026-07-05T01:47:12.542208","CLASSIFICATION_TYPE":"U","MEAN_MOTION":14.76468262,"ECCENTRICITY":0.0001849,"INCLINATION":51.9024,"RA_OF_ASC_NODE":105.6163,"ARG_OF_PERICENTER":109.0382,"MEAN_ANOMALY":251.0779,"EPHEMERIS_TYPE":0,"NORAD_CAT_ID":68597,"ELEMENT_SET_NO":999,"REV_AT_EPOCH":1392,"BSTAR":0.00062233,"MEAN_MOTION_DOT":0.00004159,"MEAN_MOTION_DDOT":0},{"OBJECT_NAME":"KUIPER-00301","OBJECT_ID":"2026-072AB","EPOCH":"2026-07-05T03:33:08.686080","CLASSIFICATION_TYPE":"U","MEAN_MOTION":15.38555752,"ECCENTRICITY":0.0009176,"INCLINATION":51.8655,"RA_OF_ASC_NODE":89.9878,"ARG_OF_PERICENTER":85.5979,"MEAN_ANOMALY":274.6056,"EPHEMERIS_TYPE":0,"NORAD_CAT_ID":68598,"ELEMENT_SET_NO":999,"REV_AT_EPOCH":1414,"BSTAR":0.0015028,"MEAN_MOTION_DOT":0.0005823,"MEAN_MOTION_DDOT":0},{"OBJECT_NAME":"KUIPER-00304","OBJECT_ID":"2026-072AC","EPOCH":"2026-07-05T00:44:17.225088","CLASSIFICATION_TYPE":"U","MEAN_MOTION":15.38344462,"ECCENTRICITY":0.0011861,"INCLINATION":51.8659,"RA_OF_ASC_NODE":90.7083,"ARG_OF_PERICENTER":89.8506,"MEAN_ANOMALY":270.384,"EPHEMERIS_TYPE":0,"NORAD_CAT_ID":68599,"ELEMENT_SET_NO":999,"REV_AT_EPOCH":1412,"BSTAR":0.0011422,"MEAN_MOTION_DOT":0.00043812,"MEAN_MOTION_DDOT":0},{"OBJECT_NAME":"KUIPER-00317","OBJECT_ID":"2026-072AD","EPOCH":"2026-07-05T14:00:03.000384","CLASSIFICATION_TYPE":"U","MEAN_MOTION":14.80384943,"ECCENTRICITY":0.000216,"INCLINATION":51.8977,"RA_OF_ASC_NODE":94.3195,"ARG_OF_PERICENTER":100.9321,"MEAN_ANOMALY":92.5577,"EPHEMERIS_TYPE":0,"NORAD_CAT_ID":68600,"ELEMENT_SET_NO":999,"REV_AT_EPOCH":466,"BSTAR":0.001427291,"MEAN_MOTION_DOT":0.00010794,"MEAN_MOTION_DDOT":0},{"OBJECT_NAME":"KUIPER-00320","OBJECT_ID":"2026-072AE","EPOCH":"2026-07-05T04:53:29.227200","CLASSIFICATION_TYPE":"U","MEAN_MOTION":14.7992656,"ECCENTRICITY":0.0000607,"INCLINATION":51.9014,"RA_OF_ASC_NODE":100.9831,"ARG_OF_PERICENTER":115.1795,"MEAN_ANOMALY":244.923,"EPHEMERIS_TYPE":0,"NORAD_CAT_ID":68601,"ELEMENT_SET_NO":999,"REV_AT_EPOCH":1399,"BSTAR":0.00079884,"MEAN_MOTION_DOT":0.00005873,"MEAN_MOTION_DDOT":0},{"OBJECT_NAME":"KUIPER-00299","OBJECT_ID":"2026-095A","EPOCH":"2026-07-05T04:54:20.198016","CLASSIFICATION_TYPE":"U","MEAN_MOTION":14.76465177,"ECCENTRICITY":0.0001838,"INCLINATION":51.8978,"RA_OF_ASC_NODE":169.3117,"ARG_OF_PERICENTER":226.9485,"MEAN_ANOMALY":133.1323,"EPHEMERIS_TYPE":0,"NORAD_CAT_ID":68864,"ELEMENT_SET_NO":999,"REV_AT_EPOCH":1030,"BSTAR":0.00042617,"MEAN_MOTION_DOT":0.0000278,"MEAN_MOTION_DDOT":0},{"OBJECT_NAME":"KUIPER-00353","OBJECT_ID":"2026-095B","EPOCH":"2026-07-05T14:00:03.000384","CLASSIFICATION_TYPE":"U","MEAN_MOTION":15.04615814,"ECCENTRICITY":0.0002366,"INCLINATION":51.8953,"RA_OF_ASC_NODE":155.1588,"ARG_OF_PERICENTER":4.9596,"MEAN_ANOMALY":91.9178,"EPHEMERIS_TYPE":0,"NORAD_CAT_ID":68865,"ELEMENT_SET_NO":999,"REV_AT_EPOCH":513,"BSTAR":-0.1743273,"MEAN_MOTION_DOT":-0.02239458,"MEAN_MOTION_DDOT":0}]}
