KUIPER-00285            
1 68589U 26072S   26186.58336806 -.00381193  00000+0 -42977-1 0  9991
2 68589  51.9096  92.0678 0006698  67.2182 196.1222 14.88396349  4096
KUIPER-00286            
1 68590U 26072T   26186.58336806 -.01144640  00000+0 -87134-1 0  9992
2 68590  51.8992  89.7380 0004633  47.0555  62.9289 15.04785355  5117
KUIPER-00289            
1 68591U 26072U   26186.00003472 -.00015554  00000+0 -20161-2 0  9998
2 68591  51.8980  99.3884 0000722 121.2272  37.9744 14.79931005  5166
KUIPER-00290            
1 68592U 26072V   26186.58336806 -.00020103  00000+0 -23200-2 0  9995
2 68592  51.8991  95.3004 0010209  86.9294 170.1034 14.84851849  3423
KUIPER-00293            
1 68593U 26072W   26186.22952634  .00002080  00000+0  30179-3 0  9996
2 68593  51.8972 108.3579 0003029 102.5239 257.6062 14.79933247 13892
KUIPER-00294            
1 68594U 26072X   26186.58336806  .00020867  00000+0  25474-2 0  9997
2 68594  51.8980  94.3067 0006538  78.3867 296.2108 14.83243703  4990
KUIPER-00296            
1 68595U 26072Y   26186.14538246  .00054484  00000+0  13978-2 0  9990
2 68595  51.8701  90.0113 0009276  85.4980 274.7067 15.38767029 14140
KUIPER-00297            
1 68596U 26072Z   26186.21717593  .00003865  00000+0  58195-3 0  9991
2 68596  51.8990 107.9241 0001165 116.6526 243.4554 14.76352356 13904
KUIPER-00300            
1 68597U 26072AA  26186.07445072  .00004159  00000+0  62233-3 0  9991
2 68597  51.9024 105.6163 0001848 109.0382 251.0779 14.76468262 13926
KUIPER-00301            
1 68598U 26072AB  26186.14801721  .00058230  00000+0  15028-2 0  9995
2 68598  51.8655  89.9878 0009175  85.5979 274.6056 15.38555752 14148
KUIPER-00304            
1 68599U 26072AC  26186.03075492  .00043812  00000+0  11422-2 0  9996
2 68599  51.8659  90.7083 0011861  89.8506 270.3840 15.38344462 14125
KUIPER-00317            
1 68600U 26072AD  26186.58336806  .00010794  00000+0  14273-2 0  9998
2 68600  51.8977  94.3195 0002160 100.9321  92.5577 14.80384943  4660
KUIPER-00320            
1 68601U 26072AE  26186.20381050  .00005873  00000+0  79884-3 0  9991
2 68601  51.9014 100.9831 0000607 115.1795 244.9230 14.79926560 13992
KUIPER-00299            
1 68864U 26095A   26186.20440045  .00002780  00000+0  42617-3 0  9995
2 68864  51.8978 169.3117 0001837 226.9485 133.1323 14.76465177 10303
KUIPER-00353            
1 68865U 26095B   26186.58336806 -.02239458  00000+0 -17433+0 0  9998
2 68865  51.8953 155.1588 0002366   4.9596  91.9178 15.04615814  5138
